OBJECT_NAME,OBJECT_ID,EPOCH,MEAN_MOTION,ECCENTRICITY,INCLINATION,RA_OF_ASC_NODE,ARG_OF_PERICENTER,MEAN_ANOMALY,EPHEMERIS_TYPE,CLASSIFICATION_TYPE,NORAD_CAT_ID,ELEMENT_SET_NO,REV_AT_EPOCH,BSTAR,MEAN_MOTION_DOT,MEAN_MOTION_DDOT
IRIDIUM 135,2017-083A,2026-07-04T14:14:55.160736,14.34218311,.00022015,86.3983,314.7383,93.0417,267.1031,0,U,43070,999,44664,.35199162E-4,.118E-5,0
IRIDIUM 138,2017-083B,2026-07-04T14:51:27.127872,14.34218340,.00021405,86.3995,314.4258,88.2714,271.8727,0,U,43071,999,44663,.32645281E-4,.111E-5,0
IRIDIUM 116,2017-083C,2026-07-04T19:07:11.129376,14.34218604,.00023238,86.3982,314.6393,100.9704,259.1754,0,U,43072,999,44669,.44803236E-4,.145E-5,0
IRIDIUM 130,2017-083D,2026-07-04T15:00:35.092224,14.34218114,.00020901,86.3989,314.9877,98.9990,261.1443,0,U,43073,999,44661,.32623675E-4,.111E-5,0
IRIDIUM 151,2017-083E,2026-07-04T14:24:03.164832,14.34218022,.00022288,86.3984,314.7795,94.1643,265.9807,0,U,43074,999,44663,.18221731E-4,.71E-6,0
IRIDIUM 134,2017-083F,2026-07-04T18:39:47.038464,14.34218536,.00021384,86.3985,314.7132,94.2599,265.8841,0,U,43075,999,44662,.11831597E-3,.351E-5,0
IRIDIUM 137,2017-083G,2026-07-04T18:58:03.189216,14.34218383,.00026195,86.3984,314.8012,98.1812,261.9681,0,U,43076,999,44669,.32372247E-4,.11E-5,0
IRIDIUM 141,2017-083H,2026-07-04T18:48:55.162656,14.34217975,.00021884,86.3980,314.6335,91.9417,268.2030,0,U,43077,999,44669,.16998766E-4,.67E-6,0
IRIDIUM 153,2017-083J,2026-07-04T12:38:39.373440,14.34217991,.00021331,86.3964,283.2215,92.9528,267.1912,0,U,43078,999,44776,.1179547E-3,.35E-5,0
IRIDIUM 131,2017-083K,2026-07-04T08:27:51.160608,14.34218106,.00022301,86.3988,315.0009,93.4492,266.6959,0,U,43079,999,44656,.22054852E-4,.82E-6,0
IRIDIUM 144,2018-030A,2026-07-04T12:47:47.430240,14.34217820,.00022908,86.3964,283.1477,97.9112,262.2344,0,U,43249,999,43262,.38981678E-4,.129E-5,0
IRIDIUM 149,2018-030B,2026-07-04T04:34:35.435424,14.34218074,.00022722,86.3962,283.2576,93.3665,266.7791,0,U,43250,999,43259,.24729481E-4,.89E-6,0
IRIDIUM 157,2018-030C,2026-07-04T16:45:15.424416,14.34218111,.00022504,86.3965,283.0991,94.9591,265.1861,0,U,43251,999,43264,.30862649E-4,.106E-5,0
IRIDIUM 140,2018-030D,2026-07-04T17:12:39.388320,14.34218381,.00022231,86.3965,283.1036,95.7086,264.4364,0,U,43252,999,43270,.41582192E-4,.136E-5,0
IRIDIUM 145,2018-030E,2026-07-04T16:54:22.747680,14.34215734,.00023461,86.3963,283.0810,103.4071,256.7387,0,U,43253,999,43263,-.9683016E-5,-.7E-7,0
IRIDIUM 146,2018-030F,2026-07-04T16:26:59.411040,14.34218107,.00022997,86.3965,283.1012,98.2758,261.8699,0,U,43254,999,43264,.15798803E-4,.64E-6,0
IRIDIUM 148,2018-030G,2026-07-04T17:21:47.369952,14.34219440,.00023786,86.3963,283.1287,95.5051,264.6416,0,U,43255,999,43268,.10896259E-3,.325E-5,0
IRIDIUM 142,2018-030H,2026-07-04T13:15:11.414880,14.34218108,.00023267,86.3963,283.0887,99.5169,260.6290,0,U,43256,999,43262,.12347604E-3,.366E-5,0
IRIDIUM 150,2018-030J,2026-07-04T12:29:31.387488,14.34218597,.0002206,86.3967,283.2190,96.0982,264.0465,0,U,43257,999,43264,.57914205E-4,.182E-5,0
IRIDIUM 143,2018-030K,2026-07-04T12:02:07.255968,14.34216484,.00022773,86.3969,283.3200,98.3411,261.8043,0,U,43258,999,43257,-.12635906E-4,-.16E-6,0
IRIDIUM 161,2018-047C,2026-07-04T10:22:36.901056,14.43282122,.00024091,86.4473,81.2605,79.5132,280.6341,0,U,43478,999,42762,.10239716E-3,.365E-5,0
IRIDIUM 152,2018-047D,2026-07-04T11:22:50.994912,14.34217435,.00022126,86.3949,81.1043,81.7272,278.4174,0,U,43479,999,42496,.12562338E-3,.372E-5,0
IRIDIUM 147,2018-047E,2026-07-04T09:51:29.766816,14.34216834,.00023025,86.3946,81.1356,86.3202,273.8257,0,U,43480,999,42495,.92564513E-4,.279E-5,0
IRIDIUM 110,2018-047F,2026-07-04T10:00:38.270304,14.34217730,.00023289,86.3953,81.2259,76.0453,284.1001,0,U,43481,999,42494,.3105604E-5,.28E-6,0
IRIDIUM 162,2018-047G,2026-07-04T16:52:53.090400,14.43281630,.00022555,86.4472,81.0379,83.6887,276.4571,0,U,43482,999,42765,.12197312E-3,.43E-5,0
IRIDIUM 160,2018-061A,2026-07-04T20:25:54.445440,14.34217853,.00022447,86.3947,49.4099,85.6233,274.5219,0,U,43569,999,41590,.3440809E-5,.29E-6,0
IRIDIUM 166,2018-061B,2026-07-04T21:02:26.407392,14.34218452,.00022236,86.3945,49.3495,88.9383,271.2067,0,U,43570,999,41593,.40825172E-4,.134E-5,0
IRIDIUM 158,2018-061C,2026-07-04T08:33:30.352320,14.34218966,.00021385,86.3945,49.5771,85.2890,274.8550,0,U,43571,999,41582,.67200948E-4,.208E-5,0
IRIDIUM 165,2018-061D,2026-07-04T20:53:18.389472,14.34218237,.00021716,86.3947,49.4090,89.9414,270.2030,0,U,43572,999,41592,.20429117E-4,.77E-6,0
IRIDIUM 155,2018-061E,2026-07-04T08:15:14.176512,14.34219697,.00020602,86.3941,49.4971,86.8473,273.2959,0,U,43573,999,41581,.73729256E-4,.226E-5,0
